2 40889  56.8272 305.3520 0004238  14.1236 345.9533  1.70474383 15211
1 40889U 15045A   18051.72983942 -.00000013  00000-0  00000+0 0  9997
